[
    {
        "Altitude(m)": 706993.2572573803,
        "Argument of Periapsis(deg)": 0.004556048474650827,
        "Eccentricity": 0.0,
        "Inclination(deg)": 45.0,
        "Latitude(deg)": 43.74468159555649,
        "Longitude(deg)": 107.5391009526779,
        "Mean Anomaly(deg)": 102.79508665899233,
        "RAAN(deg)": 99.99569922341672,
        "Satellite Name": "Constellation 1 446",
        "Satellite Number": 446,
        "Semi-Major Axis(m)": 7083131.272910544,
        "Time(s)": 76
    },
    {
        "Altitude(m)": 706990.3062478232,
        "Argument of Periapsis(deg)": 0.004615996480896233,
        "Eccentricity": 0.0,
        "Inclination(deg)": 45.0,
        "Latitude(deg)": 43.731479440834626,
        "Longitude(deg)": 107.6168362826615,
        "Mean Anomaly(deg)": 102.85578779924222,
        "RAAN(deg)": 99.99564263425114,
        "Satellite Name": "Constellation 1 446",
        "Satellite Number": 446,
        "Semi-Major Axis(m)": 7083131.272910544,
        "Time(s)": 77
    },
    {
        "Altitude(m)": 706987.3424803977,
        "Argument of Periapsis(deg)": 0.004675944487141638,
        "Eccentricity": 0.0,
        "Inclination(deg)": 45.0,
        "Latitude(deg)": 43.71821870101245,
        "Longitude(deg)": 107.69453560952385,
        "Mean Anomaly(deg)": 102.9164889394921,
        "RAAN(deg)": 99.99558604508557,
        "Satellite Name": "Constellation 1 446",
        "Satellite Number": 446,
        "Semi-Major Axis(m)": 7083131.272910544,
        "Time(s)": 78
    },
    {
        "Altitude(m)": 706984.3659726147,
        "Argument of Periapsis(deg)": 0.004735892493387044,
        "Eccentricity": 0.0,
        "Inclination(deg)": 45.0,
        "Latitude(deg)": 43.70489942852484,
        "Longitude(deg)": 107.77219880666973,
        "Mean Anomaly(deg)": 102.97719007974202,
        "RAAN(deg)": 99.99552945592002,
        "Satellite Name": "Constellation 1 446",
        "Satellite Number": 446,
        "Semi-Major Axis(m)": 7083131.272910544,
        "Time(s)": 79
    },
    {
        "Altitude(m)": 706981.376742068,
        "Argument of Periapsis(deg)": 0.004795840499632449,
        "Eccentricity": 0.0,
        "Inclination(deg)": 45.0,
        "Latitude(deg)": 43.691521675979196,
        "Longitude(deg)": 107.84982574804286,
        "Mean Anomaly(deg)": 103.03789121999192,
        "RAAN(deg)": 99.99547286675444,
        "Satellite Name": "Constellation 1 446",
        "Satellite Number": 446,
        "Semi-Major Axis(m)": 7083131.272910544,
        "Time(s)": 80
    },
    {
        "Altitude(m)": 706978.3748064236,
        "Argument of Periapsis(deg)": 0.004855788505877855,
        "Eccentricity": 0.0,
        "Inclination(deg)": 45.0,
        "Latitude(deg)": 43.67808549615454,
        "Longitude(deg)": 107.9274163081271,
        "Mean Anomaly(deg)": 103.09859236024181,
        "RAAN(deg)": 99.99541627758887,
        "Satellite Name": "Constellation 1 446",
        "Satellite Number": 446,
        "Semi-Major Axis(m)": 7083131.272910544,
        "Time(s)": 81
    },
    {
        "Altitude(m)": 706975.3601834271,
        "Argument of Periapsis(deg)": 0.00491573651212326,
        "Eccentricity": 0.0,
        "Inclination(deg)": 45.0,
        "Latitude(deg)": 43.66459094200052,
        "Longitude(deg)": 108.00497019385043,
        "Mean Anomaly(deg)": 103.15929350049171,
        "RAAN(deg)": 99.99535968842329,
        "Satellite Name": "Constellation 1 446",
        "Satellite Number": 446,
        "Semi-Major Axis(m)": 7083131.272910544,
        "Time(s)": 82
    },
    {
        "Altitude(m)": 706972.332890898,
        "Argument of Periapsis(deg)": 0.004975684518368666,
        "Eccentricity": 0.0,
        "Inclination(deg)": 45.0,
        "Latitude(deg)": 43.65103806663642,
        "Longitude(deg)": 108.08248761697448,
        "Mean Anomaly(deg)": 103.2199946407416,
        "RAAN(deg)": 99.99530309925774,
        "Satellite Name": "Constellation 1 446",
        "Satellite Number": 446,
        "Semi-Major Axis(m)": 7083131.272910544,
        "Time(s)": 83
    },
    {
        "Altitude(m)": 706969.2929467288,
        "Argument of Periapsis(deg)": 0.005035632524614072,
        "Eccentricity": 0.0,
        "Inclination(deg)": 45.0,
        "Latitude(deg)": 43.63742692335056,
        "Longitude(deg)": 108.15996828551194,
        "Mean Anomaly(deg)": 103.28069578099154,
        "RAAN(deg)": 99.99524651009217,
        "Satellite Name": "Constellation 1 446",
        "Satellite Number": 446,
        "Semi-Major Axis(m)": 7083131.272910544,
        "Time(s)": 84
    },
    {
        "Altitude(m)": 706966.2403688995,
        "Argument of Periapsis(deg)": 0.0050955805308594785,
        "Eccentricity": 0.0,
        "Inclination(deg)": 45.0,
        "Latitude(deg)": 43.62375756559915,
        "Longitude(deg)": 108.23741207611639,
        "Mean Anomaly(deg)": 103.34139692124143,
        "RAAN(deg)": 99.99518992092659,
        "Satellite Name": "Constellation 1 446",
        "Satellite Number": 446,
        "Semi-Major Axis(m)": 7083131.272910544,
        "Time(s)": 85
    },
    {
        "Altitude(m)": 706963.1751754585,
        "Argument of Periapsis(deg)": 0.005155528537104883,
        "Eccentricity": 0.0,
        "Inclination(deg)": 45.0,
        "Latitude(deg)": 43.61003004700543,
        "Longitude(deg)": 108.31481886598621,
        "Mean Anomaly(deg)": 103.40209806149132,
        "RAAN(deg)": 99.99513333176102,
        "Satellite Name": "Constellation 1 446",
        "Satellite Number": 446,
        "Semi-Major Axis(m)": 7083131.272910544,
        "Time(s)": 86
    },
    {
        "Altitude(m)": 706960.097384527,
        "Argument of Periapsis(deg)": 0.0052154765433502885,
        "Eccentricity": 0.0,
        "Inclination(deg)": 45.0,
        "Latitude(deg)": 43.59624442135883,
        "Longitude(deg)": 108.39218853286494,
        "Mean Anomaly(deg)": 103.46279920174119,
        "RAAN(deg)": 99.99507674259544,
        "Satellite Name": "Constellation 1 446",
        "Satellite Number": 446,
        "Semi-Major Axis(m)": 7083131.272910544,
        "Time(s)": 87
    },
    {
        "Altitude(m)": 706957.007014311,
        "Argument of Periapsis(deg)": 0.005275424549595694,
        "Eccentricity": 0.0,
        "Inclination(deg)": 45.0,
        "Latitude(deg)": 43.58240074261394,
        "Longitude(deg)": 108.46952095504253,
        "Mean Anomaly(deg)": 103.5235003419911,
        "RAAN(deg)": 99.99502015342988,
        "Satellite Name": "Constellation 1 446",
        "Satellite Number": 446,
        "Semi-Major Axis(m)": 7083131.272910544,
        "Time(s)": 88
    },
    {
        "Altitude(m)": 706953.9040830816,
        "Argument of Periapsis(deg)": 0.0053353725558411,
        "Eccentricity": 0.0,
        "Inclination(deg)": 45.0,
        "Latitude(deg)": 43.568499064889856,
        "Longitude(deg)": 108.54681584325846,
        "Mean Anomaly(deg)": 103.58420148224101,
        "RAAN(deg)": 99.99496356426432,
        "Satellite Name": "Constellation 1 446",
        "Satellite Number": 446,
        "Semi-Major Axis(m)": 7083131.272910544,
        "Time(s)": 89
    },
    {
        "Altitude(m)": 706950.7886091989,
        "Argument of Periapsis(deg)": 0.005395320562086505,
        "Eccentricity": 0.0,
        "Inclination(deg)": 45.0,
        "Latitude(deg)": 43.554539442468794,
        "Longitude(deg)": 108.62407341309203,
        "Mean Anomaly(deg)": 103.6449026224909,
        "RAAN(deg)": 99.99490697509874,
        "Satellite Name": "Constellation 1 446",
        "Satellite Number": 446,
        "Semi-Major Axis(m)": 7083131.272910544,
        "Time(s)": 90
    },
    {
        "Altitude(m)": 706947.66061109,
        "Argument of Periapsis(deg)": 0.00545526856833191,
        "Eccentricity": 0.0,
        "Inclination(deg)": 45.0,
        "Latitude(deg)": 43.54052192979571,
        "Longitude(deg)": 108.70129337637917,
        "Mean Anomaly(deg)": 103.70560376274082,
        "RAAN(deg)": 99.99485038593318,
        "Satellite Name": "Constellation 1 446",
        "Satellite Number": 446,
        "Semi-Major Axis(m)": 7083131.272910544,
        "Time(s)": 91
    },
    {
        "Altitude(m)": 706944.5201072587,
        "Argument of Periapsis(deg)": 0.005515216574577317,
        "Eccentricity": 0.0,
        "Inclination(deg)": 45.0,
        "Latitude(deg)": 43.526446581477146,
        "Longitude(deg)": 108.77847561360215,
        "Mean Anomaly(deg)": 103.7663049029907,
        "RAAN(deg)": 99.9947937967676,
        "Satellite Name": "Constellation 1 446",
        "Satellite Number": 446,
        "Semi-Major Axis(m)": 7083131.272910544,
        "Time(s)": 92
    },
    {
        "Altitude(m)": 706941.3671162844,
        "Argument of Periapsis(deg)": 0.005575164580822722,
        "Eccentricity": 0.0,
        "Inclination(deg)": 45.0,
        "Latitude(deg)": 43.51231345228027,
        "Longitude(deg)": 108.8556200057935,
        "Mean Anomaly(deg)": 103.82700604324063,
        "RAAN(deg)": 99.99473720760203,
        "Satellite Name": "Constellation 1 446",
        "Satellite Number": 446,
        "Semi-Major Axis(m)": 7083131.272910544,
        "Time(s)": 93
    },
    {
        "Altitude(m)": 706938.2016568201,
        "Argument of Periapsis(deg)": 0.005635112587068129,
        "Eccentricity": 0.0,
        "Inclination(deg)": 45.0,
        "Latitude(deg)": 43.49812259713203,
        "Longitude(deg)": 108.93272643453633,
        "Mean Anomaly(deg)": 103.88770718349052,
        "RAAN(deg)": 99.99468061843646,
        "Satellite Name": "Constellation 1 446",
        "Satellite Number": 446,
        "Semi-Major Axis(m)": 7083131.272910544,
        "Time(s)": 94
    }
]